IRIDIUM 112             
1 41925U 17003J   25005.82307260  .00000457  00000+0  15600-3 0  9992
2 41925  86.3978 308.6750 0002175  76.8456 283.2982 14.34221176417685
IRIDIUM 111             
1 41926U 17003K   25005.81039598  .00000759  00000+0  26399-3 0  9990
2 41926  86.3982 308.7393 0001863  81.7965 278.3442 14.34211131417662
IRIDIUM 113             
1 42803U 17039A   25005.72059067 -.00000151  00000+0 -60854-4 0  9990
2 42803  86.4005 182.5907 0001806  76.0237 284.1159 14.34216362395586
IRIDIUM 123             
1 42804U 17039B   25005.83184037  .00000217  00000+0  70571-4 0  9997
2 42804  86.3972 213.9799 0001824  92.6766 267.4639 14.34215951394363
IRIDIUM 120             
1 42805U 17039C   25005.71424773  .00000005  00000+0 -52606-5 0  9995
2 42805  86.3991 182.4443 0001957 101.9883 258.1532 14.34217970395578
IRIDIUM 115             
1 42806U 17039D   25005.78821082  .00000412  00000+0  11654-3 0  9994
2 42806  86.4525 182.4682 0001513  96.7789 263.3584 14.43277591398193
IRIDIUM 118             
1 42807U 17039E   25005.58447782  .00000143  00000+0  43928-4 0  9995
2 42807  86.3972 214.0831 0002005  90.1064 270.0362 14.34216394394322
IRIDIUM 117             
1 42808U 17039F   25005.81280754  .00000224  00000+0  73078-4 0  9995
2 42808  86.3968 213.9510 0001666  93.2741 266.8645 14.34218854394384
